NORAD_CAT_ID,OBJECT_NAME,OBJECT_TYPE,EPOCH,MEAN_MOTION,ECCENTRICITY,INCLINATION,RA_OF_ASC_NODE,ARG_OF_PERICENTER,MEAN_ANOMALY,BSTAR,MEAN_MOTION_DOT,MEAN_MOTION_DDOT,TLE_LINE0,TLE_LINE1,TLE_LINE2,SEMIMAJOR_AXIS,PERIOD,APOGEE,PERIGEE,DECAYED
50818.0,STARLINK-3336,PAYLOAD,2023-09-23 08:20:24,15.08856463,0.0001568,53.2161,241.9324,102.181,257.9358,0.00026224,3.89e-05,0.0,0 STARLINK-3336,1 50818U 22001R   23266.34751054  .00003890  00000-0  26224-3 0  9994,2 50818  53.2161 241.9324 0001568 102.1810 257.9358 15.08856463 96066,6917.83,95.437,540.78,538.61,0.0
50818.0,STARLINK-3336,PAYLOAD,2023-09-24 05:00:26,15.08844256,0.0001588,53.2168,238.0673,108.4897,251.6268,5.9695e-05,6.62e-06,0.0,0 STARLINK-3336,1 50818U 22001R   23267.20863426  .00000662  00000-0  59695-4 0  9990,2 50818  53.2168 238.0673 0001588 108.4897 251.6268 15.08844256 96195,6917.867,95.437,540.831,538.634,0.0
50818.0,STARLINK-3336,PAYLOAD,2023-09-24 08:11:12,15.08845557,0.000148,53.2162,237.4725,104.4807,255.6349,8.4826e-05,1.062e-05,0.0,0 STARLINK-3336,1 50818U 22001R   23267.34111275  .00001062  00000-0  84826-4 0  9992,2 50818  53.2162 237.4725 0001480 104.4807 255.6349 15.08845557 94937,6917.863,95.437,540.752,538.705,0.0
50818.0,STARLINK-3336,PAYLOAD,2023-09-24 20:54:17,15.0884833,0.0001437,53.2158,235.0932,107.9248,252.1901,0.00016892,2.402e-05,0.0,0 STARLINK-3336,1 50818U 22001R   23267.87103037  .00002402  00000-0  16892-3 0  9993,2 50818  53.2158 235.0932 0001437 107.9248 252.1901 15.08848330 95013,6917.855,95.437,540.714,538.726,0.0
50818.0,STARLINK-3336,PAYLOAD,2023-09-25 01:40:26,15.08838414,0.0001609,53.2159,234.1994,114.5619,245.5541,2.2829e-05,7.5e-07,0.0,0 STARLINK-3336,1 50818U 22001R   23268.06975620  .00000075  00000-0  22829-4 0  9992,2 50818  53.2159 234.1994 0001609 114.5619 245.5541 15.08838414 96322,6917.885,95.438,540.863,538.637,0.0
50818.0,STARLINK-3336,PAYLOAD,2023-09-25 08:01:59,15.08847383,0.0001495,53.2166,233.0106,92.3974,267.7189,0.00023398,3.439e-05,0.0,0 STARLINK-3336,1 50818U 22001R   23268.33471394  .00003439  00000-0  23398-3 0  9999,2 50818  53.2166 233.0106 0001495  92.3974 267.7189 15.08847383 95084,6917.858,95.437,540.757,538.689,0.0
50818.0,STARLINK-3336,PAYLOAD,2023-09-25 14:23:31,15.08848225,0.0001497,53.2169,231.8212,92.9582,267.1582,0.00026102,3.87e-05,0.0,0 STARLINK-3336,1 50818U 22001R   23268.59967334  .00003870  00000-0  26102-3 0  9996,2 50818  53.2169 231.8212 0001497  92.9582 267.1582 15.08848225 95126,6917.855,95.437,540.756,538.685,0.0
50818.0,STARLINK-3336,PAYLOAD,2023-09-26 03:06:36,15.08859979,0.0001363,53.2162,229.4422,89.8008,270.314,0.00047879,7.344e-05,0.0,0 STARLINK-3336,1 50818U 22001R   23269.12958754  .00007344  00000-0  47879-3 0  9996,2 50818  53.2162 229.4422 0001363  89.8008 270.3140 15.08859979 96489,6917.819,95.436,540.627,538.741,0.0
50818.0,STARLINK-3336,PAYLOAD,2023-09-26 20:35:50,15.08849549,0.0001588,53.216,226.1735,92.9308,267.1866,0.00014446,2.012e-05,0.0,0 STARLINK-3336,1 50818U 22001R   23269.85822776  .00002012  00000-0  14446-3 0  9991,2 50818  53.2160 226.1735 0001588  92.9308 267.1866 15.08849549 96598,6917.851,95.437,540.815,538.618,0.0
50818.0,STARLINK-3336,PAYLOAD,2023-09-27 04:32:47,15.08828026,0.0001456,53.215,224.6859,77.6236,282.4919,-0.00032029,-5.38e-05,0.0,0 STARLINK-3336,1 50818U 22001R   23270.18943370 -.00005380  00000-0 -32029-3 0  9993,2 50818  53.2150 224.6859 0001456  77.6236 282.4919 15.08828026 96643,6917.917,95.438,540.789,538.775,0.0
50818.0,STARLINK-3336,PAYLOAD,2023-09-27 06:08:10,15.08830365,0.0001506,53.2154,224.3882,92.1072,268.0092,-0.00021941,-3.777e-05,0.0,0 STARLINK-3336,1 50818U 22001R   23270.25567292 -.00003777  00000-0 -21941-3 0  9995,2 50818  53.2154 224.3882 0001506  92.1072 268.0092 15.08830365 95376,6917.91,95.438,540.817,538.733,0.0
50818.0,STARLINK-3336,PAYLOAD,2023-09-28 04:23:35,15.08830049,0.0001506,53.2156,220.2248,88.9138,271.2027,0.00018063,2.587e-05,0.0,0 STARLINK-3336,1 50818U 22001R   23271.18304501  .00002587  00000-0  18063-3 0  9997,2 50818  53.2156 220.2248 0001506  88.9138 271.2027 15.08830049 95514,6917.911,95.438,540.818,538.734,0.0
50818.0,STARLINK-3336,PAYLOAD,2023-09-28 20:17:26,15.0883677,0.0001552,53.2156,217.2525,88.2499,271.867,0.00045687,6.99e-05,0.0,0 STARLINK-3336,1 50818U 22001R   23271.84545093  .00006990  00000-0  45687-3 0  9997,2 50818  53.2156 217.2525 0001552  88.2499 271.8670 15.08836770 95610,6917.89,95.438,540.829,538.682,0.0
50818.0,STARLINK-3336,PAYLOAD,2023-09-29 05:49:45,15.0885128,0.0001565,53.2155,215.4691,87.9502,272.1669,0.00062548,9.684e-05,0.0,0 STARLINK-3336,1 50818U 22001R   23272.24288688  .00009684  00000-0  62548-3 0  9994,2 50818  53.2155 215.4691 0001565  87.9502 272.1669 15.08851280 96951,6917.846,95.437,540.794,538.628,0.0
50818.0,STARLINK-3336,PAYLOAD,2023-09-30 02:29:45,15.08858046,0.000145,53.2152,211.6042,96.0653,264.0504,0.00041617,6.345e-05,0.0,0 STARLINK-3336,1 50818U 22001R   23273.10399901  .00006345  00000-0  41617-3 0  9996,2 50818  53.2152 211.6042 0001450  96.0653 264.0504 15.08858046 97087,6917.825,95.436,540.693,538.687,0.0
50818.0,STARLINK-3336,PAYLOAD,2023-09-30 13:37:27,15.08838477,0.0001897,53.2157,209.5234,75.0184,285.1018,-9.8175e-05,-1.85e-05,0.0,0 STARLINK-3336,1 50818U 22001R   23273.56768477 -.00001850  00000-0 -98175-4 0  9994,2 50818  53.2157 209.5234 0001897  75.0184 285.1018 15.08838477 97150,6917.885,95.438,541.062,538.438,0.0
50818.0,STARLINK-3336,PAYLOAD,2023-10-01 02:20:33,15.08837964,0.0001656,53.2164,207.1417,90.6299,269.4883,-7.9332e-05,-1.55e-05,0.0,0 STARLINK-3336,1 50818U 22001R   23274.09760532 -.00001550  00000-0 -79332-4 0  9998,2 50818  53.2164 207.1417 0001656  90.6299 269.4883 15.08837964 95959,6917.887,95.438,540.897,538.606,0.0
50818.0,STARLINK-3336,PAYLOAD,2023-10-01 19:49:47,15.08847181,0.0001493,53.2175,203.8707,90.0257,270.0906,-0.00012083,-2.211e-05,0.0,0 STARLINK-3336,1 50818U 22001R   23274.82624339 -.00002211  00000-0 -12083-3 0  9997,2 50818  53.2175 203.8707 0001493  90.0257 270.0906 15.08847181 96062,6917.858,95.437,540.756,538.691,0.0
50818.0,STARLINK-3336,PAYLOAD,2023-10-02 02:11:20,15.08846235,0.000153,53.2172,202.6819,89.8674,270.2494,0.00034331,5.181e-05,0.0,0 STARLINK-3336,1 50818U 22001R   23275.09120604  .00005181  00000-0  34331-3 0  9990,2 50818  53.2172 202.6819 0001530  89.8674 270.2494 15.08846235 97380,6917.861,95.437,540.785,538.668,0.0
50818.0,STARLINK-3336,PAYLOAD,2023-10-02 11:43:39,15.08842852,0.0001256,53.2163,200.8934,78.545,281.5684,0.00045879,7.022e-05,0.0,0 STARLINK-3336,1 50818U 22001R   23275.48864777  .00007022  00000-0  45879-3 0  9994,2 50818  53.2163 200.8934 0001256  78.5450 281.5684 15.08842852 97444,6917.872,95.437,540.606,538.868,0.0
50818.0,STARLINK-3336,PAYLOAD,2023-10-03 11:34:26,15.08843581,0.0001409,53.2156,196.4397,101.7119,258.4031,0.00012694,1.733e-05,0.0,0 STARLINK-3336,1 50818U 22001R   23276.48224635  .00001733  00000-0  12694-3 0  9990,2 50818  53.2156 196.4397 0001409 101.7119 258.4031 15.08843581 97595,6917.869,95.437,540.709,538.76,0.0
50818.0,STARLINK-3336,PAYLOAD,2023-10-03 22:42:08,15.08833536,0.0001768,53.2179,194.3611,106.5803,253.5383,-7.6572e-05,-1.506e-05,0.0,0 STARLINK-3336,1 50818U 22001R   23276.94593236 -.00001506  00000-0 -76572-4 0  9993,2 50818  53.2179 194.3611 0001768 106.5803 253.5383 15.08833536 96388,6917.9,95.438,540.988,538.542,0.0
50818.0,STARLINK-3336,PAYLOAD,2023-10-04 05:03:40,15.08841887,0.0001449,53.2158,193.1629,103.1543,256.9611,4.6352e-05,4.5e-06,0.0,0 STARLINK-3336,1 50818U 22001R   23277.21088756  .00000450  00000-0  46352-4 0  9998,2 50818  53.2158 193.1629 0001449 103.1543 256.9611 15.08841887 97707,6917.875,95.437,540.742,538.737,0.0
50818.0,STARLINK-3336,PAYLOAD,2023-10-04 11:25:13,15.08845154,0.0001135,53.2157,191.9749,95.2389,264.8733,7.8624e-05,9.64e-06,0.0,0 STARLINK-3336,1 50818U 22001R   23277.47584566  .00000964  00000-0  78624-4 0  9993,2 50818  53.2157 191.9749 0001135  95.2389 264.8733 15.08845154 96462,6917.865,95.437,540.515,538.944,0.0
50818.0,STARLINK-3336,PAYLOAD,2023-10-05 11:16:00,15.08843726,0.0001243,53.2171,187.5154,95.1008,265.0126,-6.2497e-05,-1.282e-05,0.0,0 STARLINK-3336,1 50818U 22001R   23278.46945194 -.00001282  00000-0 -62497-4 0  9998,2 50818  53.2171 187.5154 0001243  95.1008 265.0126 15.08843726 96615,6917.869,95.437,540.594,538.874,0.0
50818.0,STARLINK-3336,PAYLOAD,2023-10-05 22:23:42,15.08832218,0.0001037,53.2169,185.4356,91.5574,268.5537,0.00016336,2.313e-05,0.0,0 STARLINK-3336,1 50818U 22001R   23278.93313543  .00002313  00000-0  16336-3 0  9991,2 50818  53.2169 185.4356 0001037  91.5574 268.5537 15.08832218 96687,6917.904,95.438,540.487,539.052,0.0
50818.0,STARLINK-3336,PAYLOAD,2023-10-06 03:09:51,15.08857098,0.0001493,53.2176,184.5417,93.8757,266.2406,0.00016275,2.304e-05,0.0,0 STARLINK-3336,1 50818U 22001R   23279.13184048  .00002304  00000-0  16275-3 0  9992,2 50818  53.2176 184.5417 0001493  93.8757 266.2406 15.08857098 97995,6917.828,95.436,540.726,538.66,0.0
50818.0,STARLINK-3336,PAYLOAD,2023-10-06 22:14:30,15.08835532,0.0001575,53.2178,180.9743,94.7352,265.382,1.6768e-05,-2.1e-07,0.0,0 STARLINK-3336,1 50818U 22001R   23279.92673935 -.00000021  00000-0  16768-4 0  9990,2 50818  53.2178 180.9743 0001575  94.7352 265.3820 15.08835532 96832,6917.894,95.438,540.849,538.669,0.0
50818.0,STARLINK-3336,PAYLOAD,2023-10-06 23:49:53,15.08833821,0.0001681,53.2178,180.6765,91.1264,268.9921,5.1213e-05,5.27e-06,0.0,0 STARLINK-3336,1 50818U 22001R   23279.99298004  .00000527  00000-0  51213-4 0  9991,2 50818  53.2178 180.6765 0001681  91.1264 268.9921 15.08833821 98128,6917.899,95.438,540.927,538.601,0.0
50818.0,STARLINK-3336,PAYLOAD,2023-10-07 10:57:35,15.08839827,0.0001753,53.2185,178.5943,93.3306,266.7886,0.00011224,1.499e-05,0.0,0 STARLINK-3336,1 50818U 22001R   23280.45665622  .00001499  00000-0  11224-3 0  9994,2 50818  53.2185 178.5943 0001753  93.3306 266.7886 15.08839827 96914,6917.881,95.438,540.959,538.533,0.0
